ALOS-4 (DAICHI-4)       
1 60182U 24123A   24198.82080796  .00003891  00000+0  52647-3 0  9990
2 60182  97.8751 295.0699 0001961 102.6274 257.5157 14.79562798  2322
